[{"OBJECT_NAME":"ATLAS CENTAUR 2","OBJECT_ID":"1963-047A","EPOCH":"2026-03-05T15:48:45.516960","MEAN_MOTION":14.12053398,"ECCENTRICITY":0.05477712,"INCLINATION":30.3517,"RA_OF_ASC_NODE":218.1699,"ARG_OF_PERICENTER":44.7627,"MEAN_ANOMALY":319.5866,"EPHEMERIS_TYPE":0,"CLASSIFICATION_TYPE":"U","NORAD_CAT_ID":694,"ELEMENT_SET_NO":999,"REV_AT_EPOCH":13105,"BSTAR":0.0002225647,"MEAN_MOTION_DOT":1.899e-5,"MEAN_MOTION_DDOT":0},{"OBJECT_NAME":"THOR AGENA D R/B","OBJECT_ID":"1964-002A","EPOCH":"2026-03-05T14:45:22.782528","MEAN_MOTION":14.34017472,"ECCENTRICITY":0.00319099,"INCLINATION":99.1228,"RA_OF_ASC_NODE":77.7302,"ARG_OF_PERICENTER":270.3392,"MEAN_ANOMALY":89.4134,"EPHEMERIS_TYPE":0,"CLASSIFICATION_TYPE":"U","NORAD_CAT_ID":733,"ELEMENT_SET_NO":999,"REV_AT_EPOCH":23771,"BSTAR":0.00013185798,"MEAN_MOTION_DOT":3.21e-6,"MEAN_MOTION_DDOT":0},{"OBJECT_NAME":"SL-3 R/B","OBJECT_ID":"1964-053B","EPOCH":"2026-03-05T12:25:04.776096","MEAN_MOTION":14.61364086,"ECCENTRICITY":0.00795842,"INCLINATION":65.0788,"RA_OF_ASC_NODE":343.4686,"ARG_OF_PERICENTER":293.5469,"MEAN_ANOMALY":65.7285,"EPHEMERIS_TYPE":0,"CLASSIFICATION_TYPE":"U","NORAD_CAT_ID":877,"ELEMENT_SET_NO":999,"REV_AT_EPOCH":26618,"BSTAR":0.0001221068,"MEAN_MOTION_DOT":5.07e-6,"MEAN_MOTION_DDOT":0},{"OBJECT_NAME":"SL-8 R/B","OBJECT_ID":"1967-045B","EPOCH":"2026-03-05T05:10:01.400736","MEAN_MOTION":14.45617853,"ECCENTRICITY":0.00640097,"INCLINATION":74.0138,"RA_OF_ASC_NODE":356.4442,"ARG_OF_PERICENTER":3.7658,"MEAN_ANOMALY":356.3968,"EPHEMERIS_TYPE":0,"CLASSIFICATION_TYPE":"U","NORAD_CAT_ID":2802,"ELEMENT_SET_NO":999,"REV_AT_EPOCH":8837,"BSTAR":0.00018201541,"MEAN_MOTION_DOT":6.31e-6,"MEAN_MOTION_DDOT":0},{"OBJECT_NAME":"SL-8 R/B","OBJECT_ID":"1968-040B","EPOCH":"2026-03-05T02:49:22.968480","MEAN_MOTION":15.03219232,"ECCENTRICITY":0.00240734,"INCLINATION":74.0328,"RA_OF_ASC_NODE":323.0362,"ARG_OF_PERICENTER":148.3655,"MEAN_ANOMALY":211.8987,"EPHEMERIS_TYPE":0,"CLASSIFICATION_TYPE":"U","NORAD_CAT_ID":3230,"ELEMENT_SET_NO":999,"REV_AT_EPOCH":8932,"BSTAR":0.00032968914,"MEAN_MOTION_DOT":4.45e-5,"MEAN_MOTION_DDOT":0},{"OBJECT_NAME":"OAO 2","OBJECT_ID":"1968-110A","EPOCH":"2026-03-05T15:27:06.492096","MEAN_MOTION":14.47305155,"ECCENTRICITY":0.00054148,"INCLINATION":34.9933,"RA_OF_ASC_NODE":287.8133,"ARG_OF_PERICENTER":173.1929,"MEAN_ANOMALY":186.8836,"EPHEMERIS_TYPE":0,"CLASSIFICATION_TYPE":"U","NORAD_CAT_ID":3597,"ELEMENT_SET_NO":999,"REV_AT_EPOCH":1851,"BSTAR":0.0001079882,"MEAN_MOTION_DOT":3.82e-6,"MEAN_MOTION_DDOT":0},{"OBJECT_NAME":"ISIS 1","OBJECT_ID":"1969-009A","EPOCH":"2026-03-05T04:56:46.281408","MEAN_MOTION":11.30412502,"ECCENTRICITY":0.17078246,"INCLINATION":88.4547,"RA_OF_ASC_NODE":155.7975,"ARG_OF_PERICENTER":98.2065,"MEAN_ANOMALY":281.5357,"EPHEMERIS_TYPE":0,"CLASSIFICATION_TYPE":"U","NORAD_CAT_ID":3669,"ELEMENT_SET_NO":999,"REV_AT_EPOCH":34802,"BSTAR":0.00012724964,"MEAN_MOTION_DOT":2.02e-6,"MEAN_MOTION_DDOT":0},{"OBJECT_NAME":"SERT 2","OBJECT_ID":"1970-009A","EPOCH":"2026-03-05T14:20:44.273760","MEAN_MOTION":13.58729392,"ECCENTRICITY":0.00048852,"INCLINATION":99.2754,"RA_OF_ASC_NODE":7.9153,"ARG_OF_PERICENTER":165.7293,"MEAN_ANOMALY":7.2167,"EPHEMERIS_TYPE":0,"CLASSIFICATION_TYPE":"U","NORAD_CAT_ID":4327,"ELEMENT_SET_NO":999,"REV_AT_EPOCH":77933,"BSTAR":7.3545712e-5,"MEAN_MOTION_DOT":1.2e-7,"MEAN_MOTION_DDOT":0},{"OBJECT_NAME":"SL-3 R/B","OBJECT_ID":"1971-028B","EPOCH":"2026-03-05T13:17:04.754400","MEAN_MOTION":15.6072347,"ECCENTRICITY":0.00138262,"INCLINATION":81.2343,"RA_OF_ASC_NODE":57.1359,"ARG_OF_PERICENTER":303.5118,"MEAN_ANOMALY":56.4813,"EPHEMERIS_TYPE":0,"CLASSIFICATION_TYPE":"U","NORAD_CAT_ID":5118,"ELEMENT_SET_NO":999,"REV_AT_EPOCH":98802,"BSTAR":0.00056681733,"MEAN_MOTION_DOT":0.00047491,"MEAN_MOTION_DDOT":0},{"OBJECT_NAME":"ASTEX 1","OBJECT_ID":"1971-089A","EPOCH":"2026-03-05T11:26:48.604416","MEAN_MOTION":14.50764765,"ECCENTRICITY":0.0017875,"INCLINATION":92.7127,"RA_OF_ASC_NODE":150.3975,"ARG_OF_PERICENTER":98.2962,"MEAN_ANOMALY":262.0272,"EPHEMERIS_TYPE":0,"CLASSIFICATION_TYPE":"U","NORAD_CAT_ID":5560,"ELEMENT_SET_NO":999,"REV_AT_EPOCH":86169,"BSTAR":0.00017204962,"MEAN_MOTION_DOT":6.77e-6,"MEAN_MOTION_DDOT":0},{"OBJECT_NAME":"SL-8 R/B","OBJECT_ID":"1971-119B","EPOCH":"2026-03-05T14:55:17.284512","MEAN_MOTION":14.37730968,"ECCENTRICITY":0.05495744,"INCLINATION":73.8884,"RA_OF_ASC_NODE":183.321,"ARG_OF_PERICENTER":150.8048,"MEAN_ANOMALY":212.5056,"EPHEMERIS_TYPE":0,"CLASSIFICATION_TYPE":"U","NORAD_CAT_ID":5730,"ELEMENT_SET_NO":999,"REV_AT_EPOCH":65490,"BSTAR":0.00078448551,"MEAN_MOTION_DOT":0.000151,"MEAN_MOTION_DDOT":0},{"OBJECT_NAME":"OAO 3 (COPERNICUS)","OBJECT_ID":"1972-065A","EPOCH":"2026-03-05T10:44:41.479584","MEAN_MOTION":14.59994152,"ECCENTRICITY":0.00060685,"INCLINATION":35.0066,"RA_OF_ASC_NODE":321.4842,"ARG_OF_PERICENTER":130.6105,"MEAN_ANOMALY":35.9162,"EPHEMERIS_TYPE":0,"CLASSIFICATION_TYPE":"U","NORAD_CAT_ID":6153,"ELEMENT_SET_NO":999,"REV_AT_EPOCH":84557,"BSTAR":0.00011580312,"MEAN_MOTION_DOT":5.43e-6,"MEAN_MOTION_DDOT":0},{"OBJECT_NAME":"ATLAS CENTAUR R/B","OBJECT_ID":"1972-065B","EPOCH":"2026-03-05T10:28:54.995232","MEAN_MOTION":14.77674031,"ECCENTRICITY":0.0034036,"INCLINATION":35.0027,"RA_OF_ASC_NODE":330.6773,"ARG_OF_PERICENTER":333.1322,"MEAN_ANOMALY":26.7616,"EPHEMERIS_TYPE":0,"CLASSIFICATION_TYPE":"U","NORAD_CAT_ID":6155,"ELEMENT_SET_NO":999,"REV_AT_EPOCH":84063,"BSTAR":0.00025835064,"MEAN_MOTION_DOT":1.875e-5,"MEAN_MOTION_DDOT":0},{"OBJECT_NAME":"SL-8 R/B","OBJECT_ID":"1975-112B","EPOCH":"2026-03-05T07:54:30.668832","MEAN_MOTION":14.38200686,"ECCENTRICITY":0.00145288,"INCLINATION":74.0619,"RA_OF_ASC_NODE":26.932,"ARG_OF_PERICENTER":122.034,"MEAN_ANOMALY":238.2228,"EPHEMERIS_TYPE":0,"CLASSIFICATION_TYPE":"U","NORAD_CAT_ID":8459,"ELEMENT_SET_NO":999,"REV_AT_EPOCH":63124,"BSTAR":0.00011858584,"MEAN_MOTION_DOT":3.34e-6,"MEAN_MOTION_DDOT":0},{"OBJECT_NAME":"SL-3 R/B","OBJECT_ID":"1977-057B","EPOCH":"2026-03-05T13:48:03.291840","MEAN_MOTION":15.45356258,"ECCENTRICITY":0.0006274,"INCLINATION":97.5765,"RA_OF_ASC_NODE":236.3152,"ARG_OF_PERICENTER":302.347,"MEAN_ANOMALY":57.7171,"EPHEMERIS_TYPE":0,"CLASSIFICATION_TYPE":"U","NORAD_CAT_ID":10114,"ELEMENT_SET_NO":999,"REV_AT_EPOCH":66769,"BSTAR":0.00034273379,"MEAN_MOTION_DOT":0.00016285,"MEAN_MOTION_DDOT":0},{"OBJECT_NAME":"SEASAT 1","OBJECT_ID":"1978-064A","EPOCH":"2026-03-05T03:19:05.730528","MEAN_MOTION":14.46155861,"ECCENTRICITY":0.00022054,"INCLINATION":108.0119,"RA_OF_ASC_NODE":115.949,"ARG_OF_PERICENTER":287.3254,"MEAN_ANOMALY":72.765,"EPHEMERIS_TYPE":0,"CLASSIFICATION_TYPE":"U","NORAD_CAT_ID":10967,"ELEMENT_SET_NO":999,"REV_AT_EPOCH":50585,"BSTAR":0.00011534668,"MEAN_MOTION_DOT":2.75e-6,"MEAN_MOTION_DDOT":0},{"OBJECT_NAME":"SL-14 R/B","OBJECT_ID":"1979-011B","EPOCH":"2026-03-05T13:21:02.920320","MEAN_MOTION":14.91902861,"ECCENTRICITY":0.00175726,"INCLINATION":82.5213,"RA_OF_ASC_NODE":100.4941,"ARG_OF_PERICENTER":73.2348,"MEAN_ANOMALY":287.0798,"EPHEMERIS_TYPE":0,"CLASSIFICATION_TYPE":"U","NORAD_CAT_ID":11267,"ELEMENT_SET_NO":999,"REV_AT_EPOCH":52816,"BSTAR":7.5614734e-5,"MEAN_MOTION_DOT":7.92e-6,"MEAN_MOTION_DDOT":0}]
