ATLAS CENTAUR 2         
1 00694U 63047A   26064.65886015  .00001899  00000+0  22256-3 0  9992
2 00694  30.3517 218.1699 0547771  44.7627 319.5866 14.12053398131051
THOR AGENA D R/B        
1 00733U 64002A   26064.61484702  .00000321  00000+0  13186-3 0  9992
2 00733  99.1228  77.7302 0031909 270.3392  89.4134 14.34017472237712
SL-3 R/B                
1 00877U 64053B   26064.51741639  .00000507  00000+0  12211-3 0  9995
2 00877  65.0788 343.4686 0079584 293.5469  65.7285 14.61364086266188
SL-8 R/B                
1 02802U 67045B   26064.21529399  .00000631  00000+0  18202-3 0  9997
2 02802  74.0138 356.4442 0064009   3.7658 356.3968 14.45617853 88373
SL-8 R/B                
1 03230U 68040B   26064.11762695  .00004450  00000+0  32969-3 0  9995
2 03230  74.0328 323.0362 0024073 148.3655 211.8987 15.03219232 89327
OAO 2                   
1 03597U 68110A   26064.64382514  .00000382  00000+0  10799-3 0  9992
2 03597  34.9933 287.8133 0005414 173.1929 186.8836 14.47305155 18515
ISIS 1                  
1 03669U 69009A   26064.20609122  .00000202  00000+0  12725-3 0  9991
2 03669  88.4547 155.7975 1707824  98.2065 281.5357 11.30412502348027
SERT 2                  
1 04327U 70009A   26064.59773465  .00000012  00000+0  73546-4 0  9997
2 04327  99.2754   7.9153 0004885 165.7293   7.2167 13.58729392779338
SL-3 R/B                
1 05118U 71028B   26064.55352725  .00047491  00000+0  56682-3 0  9999
2 05118  81.2343  57.1359 0013826 303.5118  56.4813 15.60723470988028
ASTEX 1                 
1 05560U 71089A   26064.47695144  .00000677  00000+0  17205-3 0  9996
2 05560  92.7127 150.3975 0017875  98.2962 262.0272 14.50764765861696
SL-8 R/B                
1 05730U 71119B   26064.62172783  .00015100  00000+0  78449-3 0  9999
2 05730  73.8884 183.3210 0549574 150.8048 212.5056 14.37730968654906
OAO 3 (COPERNICUS)      
1 06153U 72065A   26064.44770231  .00000543  00000+0  11580-3 0  9990
2 06153  35.0066 321.4842 0006068 130.6105  35.9162 14.59994152845571
ATLAS CENTAUR R/B       
1 06155U 72065B   26064.43674763  .00001875  00000+0  25835-3 0  9991
2 06155  35.0027 330.6773 0034036 333.1322  26.7616 14.77674031840637
SL-8 R/B                
1 08459U 75112B   26064.32952163  .00000334  00000+0  11859-3 0  9997
2 08459  74.0619  26.9320 0014528 122.0340 238.2228 14.38200686631240
SL-3 R/B                
1 10114U 77057B   26064.57503810  .00016285  00000+0  34273-3 0  9993
2 10114  97.5765 236.3152 0006274 302.3470  57.7171 15.45356258667694
SEASAT 1                
1 10967U 78064A   26064.13826077  .00000275  00000+0  11535-3 0  9991
2 10967 108.0119 115.9490 0002205 287.3254  72.7650 14.46155861505855
SL-14 R/B               
1 11267U 79011B   26064.55628380  .00000792  00000+0  75615-4 0  9995
2 11267  82.5213 100.4941 0017572  73.2348 287.0798 14.91902861528162
